*******************************************************************************
 Revised: July 31, 2013             Moon / (Earth)                          301
 
 GEOPHYSICAL DATA (updated 2018-Aug-15):
  Vol. mean radius, km  = 1737.53+-0.03    Mass, x10^22 kg       =    7.349
  Radius (gravity), km  = 1738.0           Surface emissivity    =    0.92
  Radius (IAU), km      = 1737.4           GM, km^3/s^2          = 4902.800066
  Density, g/cm^3       =    3.3437        GM 1-sigma, km^3/s^2  =  +-0.0001  
  V(1,0)                =   +0.21          Surface accel., m/s^2 =    1.62
  Earth/Moon mass ratio = 81.3005690769    Farside crust. thick. = ~80 - 90 km
  Mean crustal density  = 2.97+-.07 g/cm^3 Nearside crust. thick.= 58+-8 km 
  Heat flow, Apollo 15  = 3.1+-.6 mW/m^2   Mean angular diameter = 31'05.2"
  Heat flow, Apollo 17  = 2.2+-.5 mW/m^2   Sid. rot. rate, rad/s = 0.0000026617
  Geometric Albedo      = 0.12             Mean solar day        = 29.5306 d
  Obliquity to orbit    = 6.67 deg         Orbit period          = 27.321582 d
  Semi-major axis, a    = 384400 km        Eccentricity          = 0.05490
  Mean motion, rad/s    = 2.6616995x10^-6  Inclination           = 5.145 deg
  Apsidal period        = 3231.50 d        Nodal period          = 6798.38 d
                                 Perihelion  Aphelion    Mean
  Solar Constant (W/m^2)         1414+-7     1323+-7     1368+-7
  Maximum Planetary IR (W/m^2)   1314        1226        1268
  Minimum Planetary IR (W/m^2)      5.2         5.2         5.2
********************************************************************************


*******************************************************************************
Ephemeris / WWW_USER Sat Nov 13 12:50:10 2021 Pasadena, USA      / Horizons
*******************************************************************************
Target body name: Moon (301)                      {source: DE441}
Center body name: Solar System Barycenter (0)     {source: DE441}
Center-site name: BODY CENTER
*******************************************************************************
Start time      : A.D. 1970-Jan-01 00:00:00.0000 TDB
Stop  time      : A.D. 2040-Jan-01 00:00:00.0000 TDB
Step-size       : 11520 minutes
*******************************************************************************
Center geodetic : 0.00000000,0.00000000,0.0000000 {E-lon(deg),Lat(deg),Alt(km)}
Center cylindric: 0.00000000,0.00000000,0.0000000 {E-lon(deg),Dxy(km),Dz(km)}
Center radii    : (undefined)                                                  
Output units    : AU-D
Output type     : GEOMETRIC cartesian states
Output format   : 2 (position and velocity)
Reference frame : ICRF
*******************************************************************************
JDTDB
   X     Y     Z
   VX    VY    VZ
*******************************************************************************
$$SOE
2465667.500000000 = A.D. 2038-Sep-01 00:00:00.0000 TDB 
 X = 9.395269571276186E-01 Y =-3.499155346593893E-01 Z =-1.515782816474986E-01
 VX= 6.133863246901448E-03 VY= 1.402950291353124E-02 VZ= 6.088672305495118E-03
2465675.500000000 = A.D. 2038-Sep-09 00:00:00.0000 TDB 
 X = 9.831530837195032E-01 Y =-2.323705066338879E-01 Z =-1.009230480453900E-01
 VX= 4.462834458497003E-03 VY= 1.546252818348098E-02 VZ= 6.647140044993273E-03
2465683.500000000 = A.D. 2038-Sep-17 00:00:00.0000 TDB 
 X = 1.006611781124948E+00 Y =-1.050978996851545E-01 Z =-4.592421212870805E-02
 VX= 1.326707584725749E-03 VY= 1.605925319781265E-02 VZ= 6.983435411479427E-03
2465691.500000000 = A.D. 2038-Sep-25 00:00:00.0000 TDB 
 X = 1.006314525070493E+00 Y = 2.083460293574721E-02 Z = 9.025530987782080E-03
 VX=-1.145026227123965E-03 VY= 1.532755476376779E-02 VZ= 6.687591605188434E-03
2465699.500000000 = A.D. 2038-Oct-03 00:00:00.0000 TDB 
 X = 9.918351630479720E-01 Y = 1.422392828882372E-01 Z = 6.161428516310161E-02
 VX=-2.518373879287173E-03 VY= 1.530635735768722E-02 VZ= 6.583475614081923E-03
2465707.500000000 = A.D. 2038-Oct-11 00:00:00.0000 TDB 
 X = 9.615215295454701E-01 Y = 2.664968838185534E-01 Z = 1.151215364414373E-01
 VX=-5.290626837702385E-03 VY= 1.553557738805572E-02 VZ= 6.721814742964632E-03
2465715.500000000 = A.D. 2038-Oct-19 00:00:00.0000 TDB 
 X = 9.070347718211614E-01 Y = 3.863364380389300E-01 Z = 1.672917404760464E-01
 VX=-8.148121235932863E-03 VY= 1.420535743617778E-02 VZ= 6.210994937393236E-03
2465723.500000000 = A.D. 2038-Oct-27 00:00:00.0000 TDB 
 X = 8.355205281560085E-01 Y = 4.929734549875875E-01 Z = 2.137542653667185E-01
 VX=-9.483517944223183E-03 VY= 1.262504397850420E-02 VZ= 5.455904496049093E-03
2465731.500000000 = A.D. 2038-Nov-04 00:00:00.0000 TDB 
 X = 7.542964867414540E-01 Y = 5.921761417269742E-01 Z = 2.563699227015768E-01
 VX=-1.114132543835184E-02 VY= 1.218548736346314E-02 VZ= 5.236468540951091E-03
2465739.500000000 = A.D. 2038-Nov-12 00:00:00.0000 TDB 
 X = 6.546339829759482E-01 Y = 6.843507969943604E-01 Z = 2.963095603583296E-01
 VX=-1.371261369865385E-02 VY= 1.058147062595585E-02 VZ= 4.627269451500083E-03
2465747.500000000 = A.D. 2038-Nov-20 00:00:00.0000 TDB 
 X = 5.384853986228944E-01 Y = 7.587283560560805E-01 Z = 3.289315405387942E-01
 VX=-1.501301421351483E-02 VY= 8.009295394611588E-03 VZ= 3.499931967994239E-03
2465755.500000000 = A.D. 2038-Nov-28 00:00:00.0000 TDB 
 X = 4.176538371893292E-01 Y = 8.156421107363103E-01 Z = 3.534135449250161E-01
 VX=-1.529061011591908E-02 VY= 6.494113286895957E-03 VZ= 2.753540723646794E-03
2465763.500000000 = A.D. 2038-Dec-06 00:00:00.0000 TDB 
 X = 2.895695565838828E-01 Y = 8.624550953884029E-01 Z = 3.734198228527229E-01
 VX=-1.685129523957807E-02 VY= 4.952600664157034E-03 VZ= 2.154833555523197E-03
2465771.500000000 = A.D. 2038-Dec-14 00:00:00.0000 TDB 
 X = 1.497715170531886E-01 Y = 8.911036825401377E-01 Z = 3.861728717460765E-01
 VX=-1.782568730123004E-02 VY= 2.080700647592915E-03 VZ= 9.559654628913019E-04
2465779.500000000 = A.D. 2038-Dec-22 00:00:00.0000 TDB 
 X = 9.228514757604332E-03 Y = 8.967620926756954E-01 Z = 3.887542295227405E-01
 VX=-1.712146007283310E-02 VY=-4.078295547297364E-04 VZ=-2.122799109946267E-04
2465787.500000000 = A.D. 2038-Dec-30 00:00:00.0000 TDB 
 X =-1.260267860995387E-01 Y = 8.882810789259623E-01 Z = 3.846575047249639E-01
 VX=-1.698886954010466E-02 VY=-1.748559557423730E-03 VZ=-7.917174166433957E-04
2465795.500000000 = A.D. 2039-Jan-07 00:00:00.0000 TDB 
 X =-2.639078410887158E-01 Y = 8.652147023226388E-01 Z = 3.747684597538076E-01
 VX=-1.732762237632389E-02 VY=-4.227048809900831E-03 VZ=-1.780761951873522E-03
2465803.500000000 = A.D. 2039-Jan-15 00:00:00.0000 TDB 
 X =-3.987721383913778E-01 Y = 8.195952229950484E-01 Z = 3.553463623121024E-01
 VX=-1.607285375236615E-02 VY=-7.045592733055243E-03 VZ=-3.043762791555591E-03
2465811.500000000 = A.D. 2039-Jan-23 00:00:00.0000 TDB 
 X =-5.192253264124405E-01 Y = 7.569976940999704E-01 Z = 3.279222879667852E-01
 VX=-1.422323074006305E-02 VY=-8.359478413394135E-03 VZ=-3.682971070471550E-03
2465819.500000000 = A.D. 2039-Jan-31 00:00:00.0000 TDB 
 X =-6.303362888648362E-01 Y = 6.851630663659936E-01 Z = 2.966005612019912E-01
 VX=-1.361254706628162E-02 VY=-9.834118523310641E-03 VZ=-4.239024991577202E-03
2465827.500000000 = A.D. 2039-Feb-08 00:00:00.0000 TDB 
 X =-7.344733201603846E-01 Y = 5.970325214983762E-01 Z = 2.587740018403630E-01
 VX=-1.213075381428042E-02 VY=-1.222003793155174E-02 VZ=-5.251949342032961E-03
2465835.500000000 = A.D. 2039-Feb-16 00:00:00.0000 TDB 
 X =-8.202051761958873E-01 Y = 4.926409142938666E-01 Z = 2.135146420559520E-01
 VX=-9.250014007992031E-03 VY=-1.353371614378473E-02 VZ=-5.914841357415000E-03
2465843.500000000 = A.D. 2039-Feb-24 00:00:00.0000 TDB 
 X =-8.859504605184259E-01 Y = 3.836063105790583E-01 Z = 1.658820432459549E-01
 VX=-7.458945956477995E-03 VY=-1.380802066466229E-02 VZ=-6.000295243101855E-03
2465851.500000000 = A.D. 2039-Mar-04 00:00:00.0000 TDB 
 X =-9.402247573889028E-01 Y = 2.685524817148169E-01 Z = 1.162280918021302E-01
 VX=-5.936408550377048E-03 VY=-1.509523677202768E-02 VZ=-6.489791067371291E-03
2465859.500000000 = A.D. 2039-Mar-12 00:00:00.0000 TDB 
 X =-9.767467522585185E-01 Y = 1.424996374688799E-01 Z = 6.183797409391845E-02
 VX=-2.948586717184537E-03 VY=-1.618066416978545E-02 VZ=-7.026619968350611E-03
2465867.500000000 = A.D. 2039-Mar-20 00:00:00.0000 TDB 
 X =-9.879203267129599E-01 Y = 1.492151859587479E-02 Z = 6.172699942318895E-03
 VX=-1.552970823271583E-04 VY=-1.555004503115553E-02 VZ=-6.787331343653687E-03
2465875.500000000 = A.D. 2039-Mar-28 00:00:00.0000 TDB 
 X =-9.830921944670282E-01 Y =-1.079085035910709E-01 Z =-4.709895446012356E-02
 VX= 1.341109621492801E-03 VY=-1.536753766295383E-02 VZ=-6.622119854413641E-03
2465883.500000000 = A.D. 2039-Apr-05 00:00:00.0000 TDB 
 X =-9.639195124971423E-01 Y =-2.326974576713332E-01 Z =-1.008190515924293E-01
 VX= 3.701563130840573E-03 VY=-1.577956518790360E-02 VZ=-6.811788366647274E-03
2465891.500000000 = A.D. 2039-Apr-13 00:00:00.0000 TDB 
 X =-9.211939606843517E-01 Y =-3.563665537694667E-01 Z =-1.545980220016636E-01
 VX= 6.867446525580005E-03 VY=-1.477918851728448E-02 VZ=-6.464896241216763E-03
2465899.500000000 = A.D. 2039-Apr-21 00:00:00.0000 TDB 
 X =-8.592570416274052E-01 Y =-4.675192319604385E-01 Z =-2.030575205060363E-01
 VX= 8.373492405310592E-03 VY=-1.317556053201783E-02 VZ=-5.703268944213988E-03
2465907.500000000 = A.D. 2039-Apr-29 00:00:00.0000 TDB 
 X =-7.873329309065689E-01 Y =-5.702469260236436E-01 Z =-2.472614038631679E-01
 VX= 9.777061542530663E-03 VY=-1.260358338119398E-02 VZ=-5.411477613234656E-03
2465915.500000000 = A.D. 2039-May-07 00:00:00.0000 TDB 
 X =-6.994372622183053E-01 Y =-6.679659846978647E-01 Z =-2.894975046243887E-01
 VX= 1.233595378654093E-02 VY=-1.155554852917929E-02 VZ=-5.044313624283493E-03
2465923.500000000 = A.D. 2039-May-15 00:00:00.0000 TDB 
 X =-5.927038376040911E-01 Y =-7.504418056045082E-01 Z =-3.256632406557730E-01
 VX= 1.394455606428429E-02 VY=-9.026520011875839E-03 VZ=-3.944996469433998E-03
